HAWK-5A                 
1 52757U 22057AB  26174.94484206  .00016523  00000+0  28000-3 0  9998
2 52757  97.6610 334.2299 0005098  57.5014 302.6730 15.51601335227397
HAWK-6B                 
1 55324U 23011A   26175.06846159  .00003972  00000+0  17355-3 0  9990
2 55324  40.4998 311.9348 0001359  64.3038 295.7912 15.22986857188898
HAWK-6C                 
1 55326U 23011C   26175.06781849  .00003719  00000+0  16307-3 0  9991
2 55326  40.4983 308.7764 0002157  47.0501 313.0489 15.22981146188901
HAWK-6A                 
1 55327U 23011D   26175.06786258  .00003889  00000+0  17011-3 0  9992
2 55327  40.4996 310.4017 0001828  39.6267 320.4676 15.22984519188904
HAWK-7A                 
1 56191U 23054P   26175.25133079  .00004786  00000+0  18099-3 0  9991
2 56191  97.2700  62.4088 0003804  41.4760 318.6768 15.27422950178107
HAWK-7B                 
1 56193U 23054R   26175.18574360  .00004829  00000+0  18259-3 0  9993
2 56193  97.2726  60.6115 0003358  56.0831 304.0727 15.27420893178099
HAWK-7C                 
1 56200U 23054Y   26175.18562719  .00004715  00000+0  17835-3 0  9990
2 56200  97.2703  61.3778 0003221  46.8558 313.2950 15.27421459178097
