OBJECT_NAME,OBJECT_ID,EPOCH,MEAN_MOTION,ECCENTRICITY,INCLINATION,RA_OF_ASC_NODE,ARG_OF_PERICENTER,MEAN_ANOMALY,EPHEMERIS_TYPE,CLASSIFICATION_TYPE,NORAD_CAT_ID,ELEMENT_SET_NO,REV_AT_EPOCH,BSTAR,MEAN_MOTION_DOT,MEAN_MOTION_DDOT
HAWK-5A,2022-057AB,2026-06-23T22:40:34.353984,15.51601335,.00050988,97.6610,334.2299,57.5014,302.6730,0,U,52757,999,22739,.28000433E-3,.16523E-3,0
HAWK-6B,2023-011A,2026-06-24T01:38:35.081376,15.22986857,.00013592,40.4998,311.9348,64.3038,295.7912,0,U,55324,999,18889,.17354595E-3,.3972E-4,0
HAWK-6C,2023-011C,2026-06-24T01:37:39.517536,15.22981146,.00021576,40.4983,308.7764,47.0501,313.0489,0,U,55326,999,18890,.16307309E-3,.3719E-4,0
HAWK-6A,2023-011D,2026-06-24T01:37:43.326912,15.22984519,.00018289,40.4996,310.4017,39.6267,320.4676,0,U,55327,999,18890,.17010993E-3,.3889E-4,0
HAWK-7A,2023-054P,2026-06-24T06:01:54.980256,15.27422950,.0003804,97.2700,62.4088,41.4760,318.6768,0,U,56191,999,17810,.18098563E-3,.4786E-4,0
HAWK-7B,2023-054R,2026-06-24T04:27:28.247040,15.27420893,.00033581,97.2726,60.6115,56.0831,304.0727,0,U,56193,999,17809,.18259459E-3,.4829E-4,0
HAWK-7C,2023-054Y,2026-06-24T04:27:18.189216,15.27421459,.00032218,97.2703,61.3778,46.8558,313.2950,0,U,56200,999,17809,.17835302E-3,.4715E-4,0
